[{"OBJECT_NAME":"STARLINK-35442","OBJECT_ID":"2025-253A","EPOCH":"2026-03-09T10:44:02.698944","MEAN_MOTION":15.27611453,"ECCENTRICITY":0.0003579,"INCLINATION":43.0024,"RA_OF_ASC_NODE":214.2065,"ARG_OF_PERICENTER":294.1681,"MEAN_ANOMALY":65.8797,"EPHEMERIS_TYPE":0,"CLASSIFICATION_TYPE":"U","NORAD_CAT_ID":66319,"ELEMENT_SET_NO":999,"REV_AT_EPOCH":2020,"BSTAR":0.0015497697,"MEAN_MOTION_DOT":0.00042677,"MEAN_MOTION_DDOT":0},{"OBJECT_NAME":"OBJECT F","OBJECT_ID":"2021-022F","EPOCH":"2026-03-09T23:37:37.165152","MEAN_MOTION":15.31317672,"ECCENTRICITY":0.00120882,"INCLINATION":97.3982,"RA_OF_ASC_NODE":329.8375,"ARG_OF_PERICENTER":85.9268,"MEAN_ANOMALY":274.3355,"EPHEMERIS_TYPE":0,"CLASSIFICATION_TYPE":"U","NORAD_CAT_ID":47937,"ELEMENT_SET_NO":999,"REV_AT_EPOCH":27452,"BSTAR":0.00038690553,"MEAN_MOTION_DOT":0.00011656,"MEAN_MOTION_DDOT":0}]
